GLOBALSTAR M024         
1 25883U 99043A   25280.94672523  .00000013  00000+0  27454-2 0  9993
2 25883  51.9986 126.1962 0000560 327.3483 176.6340 11.10169674127388
GLOBALSTAR M027         
1 25884U 99043B   25280.91247956 -.00000102  00000+0 -14544-2 0  9996
2 25884  52.0199 207.4498 0020985 171.7557 188.3584 11.04372686153695
GLOBALSTAR M054         
1 25885U 99043C   25280.42464931 -.00000074  00000+0 -60162-4 0  9994
2 25885  52.0154 317.0039 0005229   9.9823   3.0042 11.39220731131844
GLOBALSTAR M053         
1 25886U 99043D   25280.99520330 -.00000070  00000+0 -46922-4 0  9997
2 25886  51.9972 268.9893 0003324 279.4254 113.8693 11.27667500132174
GLOBALSTAR M058         
1 25907U 99049A   25280.98003263 -.00000082  00000+0  35214-4 0  9991
2 25907  51.9923 167.9875 0002539 114.4674 245.6425 11.93202897555008
GLOBALSTAR M050         
1 25908U 99049B   25280.95086382 -.00000144  00000+0 -62594-3 0  9992
2 25908  51.9972 167.3168 0008238 257.6294 115.5161 12.07458117161810
GLOBALSTAR M033         
1 25909U 99049C   25280.81145955 -.00000157  00000+0 -63110-3 0  9999
2 25909  51.9936  31.7484 0014535 135.4916 224.7102 12.20296645549490
GLOBALSTAR M055         
1 25910U 99049D   25280.28867281 -.00000081  00000+0  11262-3 0  9991
2 25910  52.0039  38.5096 0006848  10.7127 349.3869 12.29433337182070
